start=new Date('2022-04-29T00:00:00.000Z').valueOf();
sats=[{"EPHEMERIS_TYPE":"0","TLE_LINE1":"1 46071U 20055AW  22118.23807354  .00006120  00000-0  42927-3 0  9992","FILE":"3420061","PERIAPSIS":"546.024","TIME_SYSTEM":"UTC","MEAN_ANOMALY":"293.6060","OBJECT_TYPE":"PAYLOAD","COUNTRY_CODE":"US","RA_OF_ASC_NODE":"312.8592","INCLINATION":"53.0531","REV_AT_EPOCH":"9657","NORAD_CAT_ID":"46071","MEAN_MOTION_DOT":"0.00006120","PERIOD":"95.591","SEMIMAJOR_AXIS":"6925.310","MEAN_MOTION_DDOT":"0.0000000000000","BSTAR":"0.00042927000000","CLASSIFICATION_TYPE":"U","REF_FRAME":"TEME","CENTER_NAME":"EARTH","GP_ID":"202215635","ELEMENT_SET_NO":"999","ECCENTRICITY":"0.00016620","ARG_OF_PERICENTER":"66.5104","EPOCH":"2022-04-28T05:42:49.553856","DECAY_DATE":null,"SITE":"AFETR","RCS_SIZE":"LARGE","MEAN_MOTION":"15.06412658","APOAPSIS":"548.326","OBJECT_ID":"2020-055AW","TLE_LINE2":"2 46071  53.0531 312.8592 0001662  66.5104 293.6060 15.06412658 96575","OBJECT_NAME":"STARLINK-1538","LAUNCH_DATE":"2020-08-07","MEAN_ELEMENT_THEORY":"SGP4"},{"BSTAR":"0.00031725000000","MEAN_MOTION_DDOT":"0.0000000000000","CENTER_NAME":"EARTH","REF_FRAME":"TEME","CLASSIFICATION_TYPE":"U","ECCENTRICITY":"0.00015650","ELEMENT_SET_NO":"999","GP_ID":"202214885","ARG_OF_PERICENTER":"56.3201","REV_AT_EPOCH":"9656","RA_OF_ASC_NODE":"312.7691","INCLINATION":"53.0542","MEAN_MOTION_DOT":"0.00004448","NORAD_CAT_ID":"46072","SEMIMAJOR_AXIS":"6925.322","PERIOD":"95.592","TLE_LINE2":"2 46072  53.0542 312.7691 0001565  56.3201 303.7937 15.06408734 96569","OBJECT_NAME":"STARLINK-1539","MEAN_ELEMENT_THEORY":"SGP4","LAUNCH_DATE":"2020-08-07","DECAY_DATE":null,"SITE":"AFETR","EPOCH":"2022-04-28T06:18:37.202976","RCS_SIZE":"LARGE","OBJECT_ID":"2020-055AX","APOAPSIS":"548.271","MEAN_MOTION":"15.06408734","TLE_LINE1":"1 46072U 20055AX  22118.26293059  .00004448  00000-0  31725-3 0  9992","EPHEMERIS_TYPE":"0","PERIAPSIS":"546.103","TIME_SYSTEM":"UTC","FILE":"3420061","OBJECT_TYPE":"PAYLOAD","MEAN_ANOMALY":"303.7937","COUNTRY_CODE":"US"},{"MEAN_MOTION_DDOT":"0.0000000000000","BSTAR":"0.00009390200000","CLASSIFICATION_TYPE":"U","REF_FRAME":"TEME","CENTER_NAME":"EARTH","GP_ID":"202223496","ELEMENT_SET_NO":"999","ECCENTRICITY":"0.00015630","ARG_OF_PERICENTER":"60.2369","REV_AT_EPOCH":"9611","INCLINATION":"53.0553","RA_OF_ASC_NODE":"310.6150","NORAD_CAT_ID":"46073","MEAN_MOTION_DOT":"0.00001117","PERIOD":"95.592","SEMIMAJOR_AXIS":"6925.365","TLE_LINE2":"2 46073  53.0553 310.6150 0001563  60.2369 299.8776 15.06394665 96110","OBJECT_NAME":"STARLINK-1542","LAUNCH_DATE":"2020-08-07","MEAN_ELEMENT_THEORY":"SGP4","EPOCH":"2022-04-28T17:49:59.384352","SITE":"AFETR","DECAY_DATE":null,"RCS_SIZE":"LARGE","APOAPSIS":"548.312","MEAN_MOTION":"15.06394665","OBJECT_ID":"2020-055AY","TLE_LINE1":"1 46073U 20055AY  22118.74304843  .00001117  00000-0  93902-4 0  9996","EPHEMERIS_TYPE":"0","FILE":"3420194","PERIAPSIS":"546.147","TIME_SYSTEM":"UTC","MEAN_ANOMALY":"299.8776","OBJECT_TYPE":"PAYLOAD","COUNTRY_CODE":"US"},{"GP_ID":"202224380","ECCENTRICITY":"0.00017370","ELEMENT_SET_NO":"999","ARG_OF_PERICENTER":"60.5829","MEAN_MOTION_DDOT":"0.0000000000000","BSTAR":"0.00030554000000","CLASSIFICATION_TYPE":"U","REF_FRAME":"TEME","CENTER_NAME":"EARTH","NORAD_CAT_ID":"46074","MEAN_MOTION_DOT":"0.00004274","PERIOD":"95.591","SEMIMAJOR_AXIS":"6925.311","REV_AT_EPOCH":"9612","RA_OF_ASC_NODE":"310.3670","INCLINATION":"53.0538","LAUNCH_DATE":"2020-08-07","MEAN_ELEMENT_THEORY":"SGP4","TLE_LINE2":"2 46074  53.0538 310.3670 0001737  60.5829 299.5333 15.06412098 96123","OBJECT_NAME":"STARLINK-1549","APOAPSIS":"548.379","MEAN_MOTION":"15.06412098","OBJECT_ID":"2020-055AZ","EPOCH":"2022-04-28T19:04:17.432544","SITE":"AFETR","DECAY_DATE":null,"RCS_SIZE":"LARGE","TLE_LINE1":"1 46074U 20055AZ  22118.79464621  .00004274  00000-0  30554-3 0  9993","EPHEMERIS_TYPE":"0","MEAN_ANOMALY":"299.5333","OBJECT_TYPE":"PAYLOAD","COUNTRY_CODE":"US","FILE":"3420233","TIME_SYSTEM":"UTC","PERIAPSIS":"545.974"},{"PERIOD":"95.592","SEMIMAJOR_AXIS":"6925.321","NORAD_CAT_ID":"46075","MEAN_MOTION_DOT":"0.00004948","RA_OF_ASC_NODE":"313.8236","INCLINATION":"53.0535","REV_AT_EPOCH":"9653","ARG_OF_PERICENTER":"63.0539","GP_ID":"202216136","ELEMENT_SET_NO":"999","ECCENTRICITY":"0.00014800","CLASSIFICATION_TYPE":"U","REF_FRAME":"TEME","CENTER_NAME":"EARTH","MEAN_MOTION_DDOT":"0.0000000000000","BSTAR":"0.00035073000000","APOAPSIS":"548.211","OBJECT_ID":"2020-055BA","MEAN_MOTION":"15.06409112","RCS_SIZE":"LARGE","EPOCH":"2022-04-28T00:34:58.744992","SITE":"AFETR","DECAY_DATE":null,"LAUNCH_DATE":"2020-08-07","MEAN_ELEMENT_THEORY":"SGP4","OBJECT_NAME":"STARLINK-1551","TLE_LINE2":"2 46075  53.0535 313.8236 0001480  63.0539 297.0601 15.06409112 96537","EPHEMERIS_TYPE":"0","TLE_LINE1":"1 46075U 20055BA  22118.02429103  .00004948  00000-0  35073-3 0  9995","COUNTRY_CODE":"US","OBJECT_TYPE":"PAYLOAD","MEAN_ANOMALY":"297.0601","FILE":"3420061","TIME_SYSTEM":"UTC","PERIAPSIS":"546.161"},{"MEAN_ANOMALY":"298.7449","OBJECT_TYPE":"PAYLOAD","COUNTRY_CODE":"US","TIME_SYSTEM":"UTC","PERIAPSIS":"546.126","FILE":"3420061","EPHEMERIS_TYPE":"0","TLE_LINE1":"1 46076U 20055BB  22118.24913078  .00002412  00000-0  18074-3 0  9995","APOAPSIS":"548.277","MEAN_MOTION":"15.06403964","OBJECT_ID":"2020-055BB","DECAY_DATE":null,"SITE":"AFETR","EPOCH":"2022-04-28T05:58:44.899392","RCS_SIZE":"LARGE","MEAN_ELEMENT_THEORY":"SGP4","LAUNCH_DATE":"2020-08-07","TLE_LINE2":"2 46076  53.0541 312.8282 0001553  61.3696 298.7449 15.06403964 96550","OBJECT_NAME":"STARLINK-1552","MEAN_MOTION_DOT":"0.00002412","NORAD_CAT_ID":"46076","SEMIMAJOR_AXIS":"6925.336","PERIOD":"95.592","REV_AT_EPOCH":"9655","INCLINATION":"53.0541","RA_OF_ASC_NODE":"312.8282","ELEMENT_SET_NO":"999","ECCENTRICITY":"0.00015530","GP_ID":"202214385","ARG_OF_PERICENTER":"61.3696","BSTAR":"0.00018074000000","MEAN_MOTION_DDOT":"0.0000000000000","REF_FRAME":"TEME","CENTER_NAME":"EARTH","CLASSIFICATION_TYPE":"U"},{"COUNTRY_CODE":"US","MEAN_ANOMALY":"295.1878","OBJECT_TYPE":"PAYLOAD","TIME_SYSTEM":"UTC","PERIAPSIS":"546.215","FILE":"3420061","TLE_LINE1":"1 46077U 20055BC  22118.36339293  .00001191  00000-0  98850-4 0  9994","EPHEMERIS_TYPE":"0","MEAN_ELEMENT_THEORY":"SGP4","LAUNCH_DATE":"2020-08-07","OBJECT_NAME":"STARLINK-1559","TLE_LINE2":"2 46077  53.0566 312.3053 0001416  64.9258 295.1878 15.06405839 96549","MEAN_MOTION":"15.06405839","APOAPSIS":"548.176","OBJECT_ID":"2020-055BC","RCS_SIZE":"LARGE","DECAY_DATE":null,"SITE":"AFETR","EPOCH":"2022-04-28T08:43:17.149152","ARG_OF_PERICENTER":"64.9258","ELEMENT_SET_NO":"999","ECCENTRICITY":"0.00014160","GP_ID":"202215136","REF_FRAME":"TEME","CENTER_NAME":"EARTH","CLASSIFICATION_TYPE":"U","BSTAR":"0.00009885000000","MEAN_MOTION_DDOT":"0.0000000000000","SEMIMAJOR_AXIS":"6925.331","PERIOD":"95.592","MEAN_MOTION_DOT":"0.00001191","NORAD_CAT_ID":"46077","RA_OF_ASC_NODE":"312.3053","INCLINATION":"53.0566","REV_AT_EPOCH":"9654"},{"OBJECT_TYPE":"PAYLOAD","MEAN_ANOMALY":"305.0799","COUNTRY_CODE":"US","FILE":"3420061","TIME_SYSTEM":"UTC","PERIAPSIS":"546.069","TLE_LINE1":"1 46078U 20055BD  22118.54032058  .00004287  00000-0  30649-3 0  9994","EPHEMERIS_TYPE":"0","LAUNCH_DATE":"2020-08-07","MEAN_ELEMENT_THEORY":"SGP4","TLE_LINE2":"2 46078  53.0534 311.5272 0001622  55.0342 305.0799 15.06407075 96584","OBJECT_NAME":"STARLINK-1563","MEAN_MOTION":"15.06407075","APOAPSIS":"548.315","OBJECT_ID":"2020-055BD","EPOCH":"2022-04-28T12:58:03.698112","DECAY_DATE":null,"SITE":"AFETR","RCS_SIZE":"LARGE","GP_ID":"202215384","ELEMENT_SET_NO":"999","ECCENTRICITY":"0.00016220","ARG_OF_PERICENTER":"55.0342","MEAN_MOTION_DDOT":"0.0000000000000","BSTAR":"0.00030649000000","CLASSIFICATION_TYPE":"U","REF_FRAME":"TEME","CENTER_NAME":"EARTH","NORAD_CAT_ID":"46078","MEAN_MOTION_DOT":"0.00004287","PERIOD":"95.592","SEMIMAJOR_AXIS":"6925.327","RA_OF_ASC_NODE":"311.5272","REV_AT_EPOCH":"9658","INCLINATION":"53.0534"},{"GP_ID":"202215636","ELEMENT_SET_NO":"999","ECCENTRICITY":"0.00013300","ARG_OF_PERICENTER":"82.7967","MEAN_MOTION_DDOT":"0.0000000000000","BSTAR":"0.00009629200000","CLASSIFICATION_TYPE":"U","REF_FRAME":"TEME","CENTER_NAME":"EARTH","NORAD_CAT_ID":"46079","MEAN_MOTION_DOT":"0.00001153","PERIOD":"95.592","SEMIMAJOR_AXIS":"6925.353","RA_OF_ASC_NODE":"311.5458","REV_AT_EPOCH":"9661","INCLINATION":"53.0538","LAUNCH_DATE":"2020-08-07","MEAN_ELEMENT_THEORY":"SGP4","TLE_LINE2":"2 46079  53.0538 311.5458 0001330  82.7967 277.3173 15.06398456 96614","OBJECT_NAME":"STARLINK-1566","APOAPSIS":"548.139","OBJECT_ID":"2020-055BE","MEAN_MOTION":"15.06398456","EPOCH":"2022-04-28T12:47:26.962080","DECAY_DATE":null,"SITE":"AFETR","RCS_SIZE":"LARGE","TLE_LINE1":"1 46079U 20055BE  22118.53295095  .00001153  00000-0  96292-4 0  9992","EPHEMERIS_TYPE":"0","OBJECT_TYPE":"PAYLOAD","MEAN_ANOMALY":"277.3173","COUNTRY_CODE":"US","FILE":"3420061","PERIAPSIS":"546.297","TIME_SYSTEM":"UTC"},{"EPHEMERIS_TYPE":"0","TLE_LINE1":"1 46080U 20055BF  22118.35970758 -.00000209  00000-0  48518-5 0  9991","FILE":"3420061","TIME_SYSTEM":"UTC","PERIAPSIS":"546.229","COUNTRY_CODE":"US","OBJECT_TYPE":"PAYLOAD","MEAN_ANOMALY":"274.5580","RA_OF_ASC_NODE":"312.3118","INCLINATION":"53.0540","REV_AT_EPOCH":"9656","PERIOD":"95.592","SEMIMAJOR_AXIS":"6925.324","NORAD_CAT_ID":"46080","MEAN_MOTION_DOT":"-0.00000209","CLASSIFICATION_TYPE":"U","REF_FRAME":"TEME","CENTER_NAME":"EARTH","MEAN_MOTION_DDOT":"0.0000000000000","BSTAR":"0.00000485180000","ARG_OF_PERICENTER":"85.5567","GP_ID":"202214886","ELEMENT_SET_NO":"999","ECCENTRICITY":"0.00013860","RCS_SIZE":"LARGE","EPOCH":"2022-04-28T08:37:58.734912","DECAY_DATE":null,"SITE":"AFETR","APOAPSIS":"548.149","MEAN_MOTION":"15.06407947","OBJECT_ID":"2020-055BF","OBJECT_NAME":"STARLINK-1568","TLE_LINE2":"2 46080  53.0540 312.3118 0001386  85.5567 274.5580 15.06407947 96560","LAUNCH_DATE":"2020-08-07","MEAN_ELEMENT_THEORY":"SGP4"}];
